OBJECT_NAME,OBJECT_ID,EPOCH,MEAN_MOTION,ECCENTRICITY,INCLINATION,RA_OF_ASC_NODE,ARG_OF_PERICENTER,MEAN_ANOMALY,EPHEMERIS_TYPE,CLASSIFICATION_TYPE,NORAD_CAT_ID,ELEMENT_SET_NO,REV_AT_EPOCH,BSTAR,MEAN_MOTION_DOT,MEAN_MOTION_DDOT
SL-6 R/B(2),1990-055D,2026-07-02T06:35:32.101440,15.04049467,.00430905,62.7804,224.0337,7.1715,352.9992,0,U,20666,999,95542,.13271933E-3,.1673E-4,0
SL-8 R/B,1990-078B,2026-07-02T06:39:37.255392,14.93090711,.03464761,82.9027,148.0023,347.4787,11.7978,0,U,20775,999,82637,.82540823E-3,.29182E-3,0
SL-8 R/B,1991-006B,2026-07-02T06:06:58.641696,13.77507496,.00238472,82.9422,84.8248,74.8031,38.9683,0,U,21088,999,77984,.85071444E-4,.1E-5,0
OKEAN-3,1991-039A,2026-07-02T03:51:58.827456,15.05390291,.00123451,82.5148,225.8613,302.5339,57.4694,0,U,21397,999,88225,.15950679E-3,.2317E-4,0
COSMOS 2151,1991-042A,2026-07-02T06:21:01.338912,15.00482349,.00131271,82.4971,333.1291,37.9289,322.2857,0,U,21422,999,88037,.12560714E-3,.1611E-4,0
SL-14 R/B,1991-042B,2026-07-02T06:40:12.313920,14.81911928,.00158929,82.4935,112.7447,220.6178,139.3852,0,U,21423,999,87004,.49613686E-4,.417E-5,0
ERS-1,1991-050A,2026-07-02T00:56:44.469312,14.39527110,.00311359,98.7793,204.1002,221.3786,138.5042,0,U,21574,999,83218,.13297145E-3,.37E-5,0
ARIANE 40 R/B,1991-050F,2026-07-02T02:18:43.678368,14.42965705,.00044596,98.1867,230.9321,89.4641,270.7061,0,U,21610,999,83549,.10110145E-3,.297E-5,0
INTERCOSMOS 25,1991-086A,2026-07-02T05:11:36.148704,12.12220093,.14840232,82.6030,240.7153,229.9397,116.2036,0,U,21819,999,51056,.15605165E-3,.789E-5,0
SL-8 R/B,1992-008B,2026-07-02T05:46:41.974176,13.75980865,.00348505,82.9260,182.5946,172.2307,198.7939,0,U,21876,999,72517,.12603908E-3,.138E-5,0
SL-8 R/B,1992-020B,2026-07-02T04:41:05.568576,13.75550086,.00286958,82.9297,68.7096,340.9097,136.5443,0,U,21938,999,71687,.39715408E-4,.53E-6,0
USA 81,1992-023A,2026-07-02T03:42:03.904704,14.32402155,.00024857,85.0063,65.3687,71.7299,288.4164,0,U,21949,999,11117,.6183432E-4,.187E-5,0
COSMOS 2219,1992-076A,2026-07-02T06:11:02.467680,14.14108939,.00174273,71.0607,138.5674,18.5228,341.6525,0,U,22219,999,73457,.97003253E-4,.138E-5,0
SL-16 R/B,1992-076B,2026-07-02T02:08:38.746176,14.16874475,.00150857,71.0013,307.3887,279.0327,253.5583,0,U,22220,999,73803,-.74648141E-4,-.198E-5,0
COSMOS 2221,1992-080A,2026-07-02T05:59:48.163200,14.96573788,.00146938,82.5034,169.3328,160.7995,199.3784,0,U,22236,999,79792,.15271292E-3,.1767E-4,0
SL-16 R/B,1992-093B,2026-07-02T05:23:06.596160,14.15464382,.00031093,71.0215,123.8240,160.4521,199.6722,0,U,22285,999,72936,.16748707E-3,.28E-5,0
COSMOS 2228,1992-094A,2026-07-02T06:06:39.269952,14.97640850,.00159794,82.5185,127.6106,277.2762,82.6644,0,U,22286,999,79320,.18432026E-3,.2186E-4,0
SL-16 R/B,1993-016B,2026-07-01T20:27:46.488960,14.15314145,.00092781,71.0088,335.4041,161.7920,198.3537,0,U,22566,999,71832,-.11271711E-3,-.267E-5,0
COSMOS 2242,1993-024A,2026-07-02T06:54:27.378432,14.96951270,.00144037,82.5188,157.0953,281.1570,78.8033,0,U,22626,999,79753,.17248218E-3,.2011E-4,0
SL-16 R/B,1993-059B,2026-07-02T05:47:19.875264,14.17249566,.00159531,70.9899,129.5576,29.1778,331.0233,0,U,22803,999,69576,.15022621E-3,.256E-5,0
ARIANE 40 R/B,1993-061H,2026-07-02T05:14:31.885440,14.32914162,.00096528,98.4813,249.7629,308.9629,51.0695,0,U,22830,999,71050,.10212718E-3,.236E-5,0
COSMOS 2278,1994-023A,2026-07-02T07:27:37.013184,14.14396716,.00102757,71.0547,295.2831,224.8591,135.1702,0,U,23087,999,66101,-.88127209E-4,-.216E-5,0
SL-16 R/B,1994-023B,2026-07-02T07:20:26.495808,14.15026379,.00017773,70.9980,190.1808,170.0438,190.0720,0,U,23088,999,66230,-.90145298E-4,-.222E-5,0
SL-16 R/B,1994-074B,2026-07-02T00:36:34.331040,14.79514974,.00060092,97.6985,209.1278,196.2937,220.4219,0,U,23343,999,70415,.67030907E-4,.452E-5,0
SL-16 R/B,1994-077B,2026-07-02T05:49:34.231584,14.15578100,.00038227,70.9833,111.4891,314.0921,45.9887,0,U,23405,999,63244,-.19301372E-4,-.86E-6,0
ARIANE 40+ R/B,1995-021B,2026-07-02T04:53:46.266144,14.39841847,.00073933,98.4407,253.0617,150.5991,272.0687,0,U,23561,999,63572,.11466166E-3,.317E-5,0
SL-16 R/B,1995-058B,2026-07-02T06:07:33.351168,14.15510782,.00146239,71.0228,299.7224,299.6979,60.2688,0,U,23705,999,58406,-.93975421E-4,-.232E-5,0
SL-16 R/B,1996-051B,2026-07-01T18:17:00.815136,14.12451293,.0016728,70.7654,293.8043,316.0295,43.9493,0,U,24298,999,53775,.11673456E-3,.167E-5,0
ORBVIEW 2 (SEASTAR),1997-037A,2026-07-02T05:08:41.215488,14.35561455,.00033273,98.8701,350.6507,86.5963,273.5602,0,U,24883,999,52490,.11357147E-3,.28E-5,0
SL-16 R/B,1998-043G,2026-07-02T02:19:43.056768,14.26071111,.00106837,98.8371,137.3850,47.3194,312.8884,0,U,25400,999,45529,.45563079E-4,.64E-6,0
SL-16 R/B,1998-045B,2026-07-02T01:38:57.831360,14.16206709,.00087877,71.0128,301.0325,223.0680,136.9756,0,U,25407,999,44329,.12033995E-3,.191E-5,0
ISS (ZARYA),1998-067A,2026-07-01T12:11:46.289760,15.49503254,.00042241,51.6311,229.1989,255.0896,104.9625,0,U,25544,999,57397,.11826728E-3,.6185E-4,0
CZ-4B R/B,1999-025C,2026-07-02T00:34:05.462976,14.18285937,.00373911,98.6476,224.4883,17.7248,43.8536,0,U,25732,999,40437,.51237921E-4,.63E-6,0
OKEAN-O,1999-039A,2026-07-02T03:34:42.316032,14.80484747,.00011773,97.9309,241.7748,70.7661,289.3678,0,U,25860,999,45132,.85288711E-4,.601E-5,0
SL-16 R/B,1999-039B,2026-07-02T03:46:02.880192,14.81860007,.00135207,97.9831,241.9770,243.4367,116.5461,0,U,25861,999,45381,.76030853E-4,.548E-5,0
DELTA 2 R/B,1999-041E,2026-07-02T06:02:41.272512,14.12046971,.05010891,51.7616,203.6139,326.5370,30.4806,0,U,25876,999,37921,.25416141E-3,.1344E-4,0
HELIOS 1B,1999-064A,2026-07-02T05:47:29.936544,14.88047193,.00023872,98.1600,88.8160,70.6865,289.4609,0,U,25977,999,70229,.18033092E-3,.1598E-4,0
TERRA,1999-068A,2026-07-02T05:21:07.909344,14.61115325,.00027222,97.9448,232.1726,149.3750,284.6419,0,U,25994,999,41180,.10391086E-3,.467E-5,0
SL-16 R/B,2000-006B,2026-07-02T06:07:18.540480,14.15840947,.00165269,71.0012,216.9427,359.0526,1.0563,0,U,26070,999,36477,.42223523E-4,.35E-6,0
TITAN 4B R/B,2000-047B,2026-07-02T05:26:17.061504,15.10279432,.00458721,67.9888,78.2394,271.9399,87.6498,0,U,26474,999,41020,.19144886E-3,.308E-4,0
ENVISAT,2002-009A,2026-07-02T02:50:59.478144,14.39068175,.00013799,98.3840,134.1046,85.4960,285.0140,0,U,27386,999,27563,.41198976E-4,.84E-6,0
IDEFIX & ARIANE 42P R/B,2002-021B,2026-07-02T07:14:15.338688,14.31089035,.00110944,98.5943,120.6211,205.2289,154.8354,0,U,27422,999,26041,.10929575E-3,.244E-5,0
AQUA,2002-022A,2026-07-02T06:08:20.826240,14.62181352,.00006954,98.4285,152.8404,80.3205,32.0215,0,U,27424,999,28547,.18729521E-3,.893E-5,0
CZ-4B R/B,2002-024C,2026-07-02T03:58:59.266272,14.14566688,.00510299,98.8692,235.8884,58.5551,7.9682,0,U,27432,999,24542,.44533243E-4,.43E-6,0
MIDORI II (ADEOS-II),2002-056A,2026-07-02T02:50:26.766240,14.29357486,.00019394,98.7886,142.5056,56.3943,303.7423,0,U,27597,999,22664,.11803588E-3,.255E-5,0
H-2A R/B,2002-056E,2026-07-02T07:22:53.731776,14.33828677,.00700332,98.3320,139.4314,179.1418,309.5379,0,U,27601,999,23053,.97543393E-4,.237E-5,0
CZ-4B R/B,2003-049C,2026-07-02T00:22:12.630144,14.55109455,.0047009,98.6901,182.4525,242.1718,117.4710,0,U,28059,999,20322,.81279516E-4,.304E-5,0
CZ-2C R/B,2004-012C,2026-07-02T03:59:03.030720,15.82147168,.00109672,97.7062,260.6056,230.0720,129.9585,0,U,28222,999,22226,.62285461E-3,.129097E-2,0
SL-16 R/B,2004-021B,2026-07-02T05:21:03.703392,14.14610336,.00066521,71.0013,352.1326,236.5077,123.5411,0,U,28353,999,13903,.1722441E-3,.284E-5,0
CZ-4B R/B,2004-035C,2026-07-02T02:27:35.401248,15.30834786,.00288528,97.3356,216.0092,281.9965,77.8042,0,U,28415,999,19740,.3034859E-3,.9082E-4,0
CZ-2C R/B,2004-046B,2026-07-02T06:24:02.111904,14.27030098,.01393614,98.1932,91.1044,175.5109,184.7360,0,U,28480,999,12484,.59452858E-4,.12E-5,0
ARIANE 5 R/B,2004-049H,2026-07-02T05:15:01.759968,14.85466916,.00833826,98.2731,356.0532,340.7668,19.0403,0,U,28499,999,16279,.73411815E-4,.608E-5,0
CZ-2D R/B,2005-024B,2026-07-02T00:04:17.382144,15.71248687,.00004466,97.3470,203.1873,329.0764,31.0473,0,U,28738,999,15766,.53181957E-3,.67504E-3,0
ALOS (DAICHI),2006-002A,2026-07-02T03:11:22.680096,14.70080366,.00008959,98.1331,138.6543,62.5034,297.6263,0,U,28931,999,9029,.19280458E-3,.1109E-4,0
H-2A R/B,2006-002B,2026-07-02T06:43:06.489408,15.18270284,.00500276,98.2580,340.4768,210.0563,149.7796,0,U,28932,999,11181,.42448101E-3,.8907E-4,0
RESURS-DK 1,2006-021A,2026-07-02T00:58:21.116352,15.13278120,.00066947,69.9341,301.1035,284.6167,75.4257,0,U,29228,999,10482,.14094593E-3,.2406E-4,0
CZ-4B R/B,2006-046C,2026-07-02T00:28:59.235456,15.17892169,.00313888,97.5436,227.5814,228.6861,131.1671,0,U,29507,999,7738,.23793922E-3,.4813E-4,0
CZ-2C R/B,2007-010B,2026-07-02T06:38:33.448128,14.20279513,.00581702,98.4112,290.8907,321.9970,37.7110,0,U,31114,999,99598,.67116895E-4,.104E-5,0
COSMO-SKYMED 1,2007-023A,2026-07-02T07:21:35.930304,14.97176302,.00013779,97.8853,15.2902,83.0057,277.1321,0,U,31598,999,3205,.20138136E-3,.2268E-4,0
COSMOS 2428,2007-029A,2026-07-02T01:57:33.483456,14.12928749,.00071231,70.9378,323.2037,106.5322,253.6582,0,U,31792,999,98025,.59747425E-4,.63E-6,0
SL-16 R/B,2007-029B,2026-07-02T07:27:48.220992,14.14852928,.0002421,70.9766,291.4367,261.4894,165.1991,0,U,31793,999,98158,-.10131013E-3,-.243E-5,0
KORONAS-FOTON,2009-003A,2026-07-02T05:24:42.299712,15.46038400,.0012627,82.4294,156.5679,101.5611,258.7057,0,U,33504,999,96342,.2612818E-3,.12839E-3,0
CZ-2C R/B,2011-030B,2026-07-02T03:51:09.606240,14.81508430,.00517566,97.8662,138.2771,339.4157,30.5683,0,U,37731,999,80704,.1723507E-3,.1327E-4,0
H-2A R/B,2012-025E,2026-07-02T05:00:24.892416,14.95789416,.00424432,98.4830,159.5932,298.7468,60.9489,0,U,38341,999,76533,.30031502E-3,.334E-4,0
SHIJIAN-16 (SJ-16),2013-057A,2026-07-02T06:04:53.163840,14.92638349,.00163338,74.9735,328.1457,195.7858,164.2824,0,U,39358,999,68859,.21502145E-3,.2192E-4,0
